CZ-2D R/B               
1 28738U 05024B   26127.55075066  .00033124  00000+0  33097-3 0  9998
2 28738  97.3534 145.0812 0006188 141.7415 218.4285 15.65527687148979
ALOS (DAICHI)           
1 28931U 06002A   26127.86247368  .00000962  00000+0  16877-3 0  9991
2 28931  98.1299  83.5651 0002138  92.8505 267.2945 14.69968148 82173
H-2A R/B                
1 28932U 06002B   26127.37838043  .00005656  00000+0  27594-3 0  9997
2 28932  98.2523 279.5449 0051771  42.8914 317.6337 15.17577705103339
RESURS-DK 1             
1 29228U 06021A   26127.84211230  .00001800  00000+0  10770-3 0  9997
2 29228  69.9328  83.9765 0004348 332.7584  27.3353 15.13048904 96475
CZ-4B R/B               
1 29507U 06046C   26127.83504966  .00003364  00000+0  16900-3 0  9992
2 29507  97.5486 172.5700 0034281  64.1007 296.3753 15.17468170 69013
CZ-2C R/B               
1 31114U 07010B   26127.83356051  .00000115  00000+0  71350-4 0  9993
2 31114  98.4052 238.1676 0060059 121.7782 238.9265 14.20266327988116
COSMO-SKYMED 1          
1 31598U 07023A   26127.82950028  .00001952  00000+0  17522-3 0  9996
2 31598  97.8880 319.3499 0001691  85.7571 274.3843 14.96917849 23752
COSMOS 2428             
1 31792U 07029A   26127.29458356 -.00000219  00000+0 -91727-4 0  9993
2 31792  70.9395  80.3294 0008463 208.4234 151.6427 14.12941971972370
SL-16 R/B               
1 31793U 07029B   26127.81037477  .00000085  00000+0  68978-4 0  9990
2 31793  70.9776  48.1056 0002682 269.4179 151.0257 14.14851693973733
KORONAS-FOTON           
1 33504U 09003A   26127.80048142  .00008078  00000+0  17105-3 0  9991
2 33504  82.4307 214.3557 0008980 303.7170  56.3222 15.44879796954866
CZ-2C R/B               
1 37731U 11030B   26127.85103130  .00000832  00000+0  11079-3 0  9998
2 37731  97.8629  83.9762 0052914 156.2855 258.2463 14.81380951798859
H-2A R/B                
1 38341U 12025E   26127.88113256  .00002306  00000+0  21012-3 0  9990
2 38341  98.4816  99.7200 0045583 117.9387 242.6457 14.95508041757067
SHIJIAN-16 (SJ-16)      
1 39358U 13057A   26127.82066690  .00002459  00000+0  24166-3 0  9990
2 39358  74.9727  73.1289 0016645 323.7806  36.2254 14.92511066680323
SL-4 R/B                
1 39679U 14021B   26127.80383257  .00010298  00000+0  22015-3 0  9998
2 39679  51.6067  48.4634 0092159 319.2063  40.2047 15.41027724665388
ALOS-2                  
1 39766U 14029A   26127.76233485  .00000777  00000+0  11093-3 0  9990
2 39766  97.9210 225.5039 0001592  90.2968 269.8426 14.79460597645608
YAOGAN-29               
1 41038U 15069A   26127.83140961  .00000422  00000+0  58558-4 0  9999
2 41038  98.0056 156.3961 0002483 121.4538 238.6918 14.83051741564644
ASTRO-H (HITOMI)        
1 41337U 16012A   26127.85501272  .00002349  00000+0  13397-3 0  9999
2 41337  31.0005 334.6316 0009575 208.2774 151.7345 15.10345992561187
HXMT (HUIYAN)           
1 42758U 17034A   26127.87258228  .00003938  00000+0  19854-3 0  9993
2 42758  43.0151  47.4576 0032966 250.3679 109.3610 15.18113500491530
SAOCOM 1A               
1 43641U 18076A   26127.83223022  .00000853  00000+0  11378-3 0  9998
2 43641  97.8891 315.1660 0001587  84.2020 275.9374 14.82146977410125
H-2A R/B                
1 43682U 18084L   26127.89193350  .00014685  00000+0  32460-3 0  9991
2 43682  98.8633 358.0229 0024066 174.4461 185.7054 15.43680626414905
SAOCOM 1B               
1 46265U 20059A   26127.79600291  .00000200  00000+0  31690-4 0  9995
2 46265  97.8891 314.2237 0001532  83.3582 276.7806 14.82156993307508
CSS (TIANHE)            
1 48274U 21035A   26127.59792897  .00019425  00000+0  20743-3 0  9999
2 48274  41.4664 208.9614 0004935 350.6261   9.4486 15.63441094286820
COSMOS 2550             
1 48865U 21056A   26127.85619856  .00004426  00000+0  14019-3 0  9994
2 48865  67.1425 221.9044 0008523 268.2245  91.7933 15.33851548272531
CZ-2C R/B               
1 52794U 22058K   26127.76856350  .00033385  00000+0  41418-3 0  9994
2 52794  50.1878  13.3504 0036848  94.7853 265.7329 15.58843188219332
CZ-2C R/B               
1 54039U 22132E   26127.53119251  .00035164  00000+0  32552-3 0  9994
2 54039  97.2929 132.8799 0014015 219.5085 140.5156 15.67319424199576
GSLV R/B                
1 54149U 22138AN  26127.88109368  .00001682  00000+0  14297-3 0  9992
2 54149  87.3801 146.5217 0018886 299.9127  60.0228 14.97083036192784
XRISM                   
1 57800U 23137A   26127.79688822  .00004184  00000+0  23122-3 0  9993
2 57800  31.0020 261.1619 0007681 276.8850  83.0914 15.12132614146745
ACS3                    
1 59588U 24077B   26127.33877385  .00001858  00000+0  14563-2 0  9999
2 59588  97.1775  55.2769 0043199 339.6578  20.2866 13.92414128102354
HTV-X1                  
1 66174U 25241A   26127.76499566  .00012553  00000+0  13917-3 0  9997
2 66174  51.6339 144.8101 0007485  35.8474 324.3022 15.63352386 30020
SZ-21 MODULE            
1 66515U 25246C   26127.49848697  .00030816  00000+0  21923-3 0  9992
2 66515  41.4720 200.0842 0002532  56.5715 303.5370 15.73172203 27326

ISS (ZARYA)             
1 25544U 98067A   26127.81231377  .00005524  00000+0  10783-3 0  9997
2 25544  51.6307 139.9570 0007375  34.4297 325.7168 15.49136029565490
POISK                   
1 36086U 09060A   26127.81231377  .00005524  00000+0  10783-3 0  9995
2 36086  51.6307 139.9570 0007375  34.4297 325.7168 15.49136029565594
CSS (TIANHE)            
1 48274U 21035A   26127.59792897  .00019425  00000+0  20743-3 0  9999
2 48274  41.4664 208.9614 0004935 350.6261   9.4486 15.63441094286820
ISS (NAUKA)             
1 49044U 21066A   26127.81231377  .00005524  00000+0  10783-3 0  9993
2 49044  51.6307 139.9570 0007375  34.4297 325.7168 15.49136029565637
FREGAT DEB              
1 49271U 11037PF  26127.40164057  .00006994  00000+0  10921-1 0  9991
2 49271  51.6377 124.4371 0933866 193.5305 163.8839 12.41282356219988
CSS (WENTIAN)           
1 53239U 22085A   26127.27853798  .00018358  00000+0  19637-3 0  9999
2 53239  41.4661 210.9130 0004931 348.4536  11.6190 15.63427610286258
CSS (MENGTIAN)          
1 54216U 22143A   26127.59792897  .00019425  00000+0  20743-3 0  9993
2 54216  41.4664 208.9614 0004935 350.6261   9.4486 15.63441094287228
TIANZHOU-9              
1 64786U 25149A   26127.53402355  .00004852  00000+0  54733-4 0  9991
2 64786  41.4575 209.3432 0009635 313.6562  46.3478 15.63402594286693
HRC MONOBLOCK CAMERA    
1 66052U 98067XR  26127.49341258  .00043367  00000+0  37501-3 0  9994
2 66052  51.6250 127.3024 0004877  25.1340 334.9893 15.68730684 31607
HTV-X1                  
1 66174U 25241A   26127.76499566  .00012553  00000+0  13917-3 0  9997
2 66174  51.6339 144.8101 0007485  35.8474 324.3022 15.63352386 30020
SZ-21 MODULE            
1 66515U 25246C   26127.49848697  .00030816  00000+0  21923-3 0  9992
2 66515  41.4720 200.0842 0002532  56.5715 303.5370 15.73172203 27326
SHENZHOU-22             
1 66645U 25272A   26127.59792897  .00019425  00000+0  20743-3 0  9998
2 66645  41.4664 208.9614 0004935 350.6261   9.4486 15.63441094287249
SOYUZ-MS 28             
1 66664U 25275A   26127.81231377  .00005524  00000+0  10783-3 0  9996
2 66664  51.6307 139.9570 0007375  34.4297 325.7168 15.49136029565870
DUPLEX                  
1 66906U 98067XS  26127.27289522  .00022238  00000+0  27719-3 0  9997
2 66906  51.6264 135.6015 0005662  29.4001 330.7309 15.59805697 24263
ISS OBJECT XT           
1 66907U 98067XT  26127.23612502  .03339593  11930-4  13669-2 0  9997
2 66907  51.6059 120.1347 0000671  41.0823 319.0247 16.22578840 24461
ISS OBJECT XU           
1 66908U 98067XU  26127.21805227  .03226817  11977-4  11668-2 0  9996
2 66908  51.6088 120.0031 0001220  14.1359 345.9695 16.24076855 24465
ISS OBJECT XW           
1 66910U 98067XW  26127.36944237  .00633189  19239-3  11495-2 0  9997
2 66910  51.6116 121.0607 0006844  52.2835 307.8794 16.00847324 24467
ISS OBJECT XY           
1 66912U 98067XY  26127.70490316  .00134331  00000+0  77564-3 0  9998
2 66912  51.6220 125.6811 0007594  44.9278 315.2335 15.77682893 24425
KNACKSAT-2              
1 67683U 98067XZ  26127.75166280  .00029743  00000+0  41478-3 0  9994
2 67683  51.6281 137.3030 0012702  48.4802 311.7277 15.56559476 13971
CORAL                   
1 67684U 98067YA  26127.71506759  .00089430  00000+0  87791-3 0  9997
2 67684  51.6244 134.7991 0016035  44.1843 316.0430 15.65139645 14005
GXIBA-1                 
1 67685U 98067YB  26127.72233770  .00034245  00000+0  45897-3 0  9994
2 67685  51.6272 137.1068 0014580  45.9723 314.2467 15.57522361 13975
UITMSAT-2               
1 67686U 98067YC  26127.28649492  .00045487  00000+0  56619-3 0  9992
2 67686  51.6270 138.6980 0011533  27.0470 333.1122 15.59399167 13918
HMU-SAT2                
1 67687U 98067YD  26127.28617902  .00033371  00000+0  45554-3 0  9999
2 67687  51.6286 139.4503 0010888  27.7384 332.4187 15.57098716 13826
LEOPARD                 
1 67688U 98067YE  26127.43786385  .00042365  00000+0  54543-3 0  9990
2 67688  51.6285 138.2121 0011144  27.1394 333.0179 15.58543796 13855
CREW DRAGON 12          
1 67796U 26031A   26127.81231377  .00005524  00000+0  10783-3 0  9994
2 67796  51.6307 139.9570 0007375  34.4297 325.7168 15.49136029565754
PROGRESS-MS 33          
1 68319U 26058A   26127.81231377  .00005524  00000+0  10783-3 0  9995
2 68319  51.6307 139.9570 0007375  34.4297 325.7168 15.49136029  7263
CYGNUS NG-24            
1 68689U 26079A   26127.16721672  .00005508  00000+0  10757-3 0  9991
2 68689  51.6305 143.1491 0007434  32.2307 327.9134 15.49128668  4134
PROGRESS-MS 34          
1 68837U 26093A   26127.16721672  .00005508  00000+0  10757-3 0  9992
2 68837  51.6305 143.1491 0007434  32.2307 327.9134 15.49128668  1631
